SL-8 R/B                
1 19257U 88053B   26098.21209983  .00000224  00000+0  81207-4 0  9996
2 19257  74.0475  58.0428 0021249 233.2360 228.0597 14.38935845980849
COSMOS 1975             
1 19573U 88093A   26098.25418369  .00005557  00000+0  19873-3 0  9998
2 19573  82.5168  87.9896 0013234  71.0109 289.2563 15.28496988 23926
SL-14 R/B               
1 19574U 88093B   26098.24683929  .00000477  00000+0  52066-4 0  9992
2 19574  82.5345  14.3041 0019356 302.9219 211.3505 14.85693159  5405
SL-16 R/B               
1 19650U 88102B   26098.21836399  .00000278  00000+0  16476-3 0  9999
2 19650  70.9976  89.3630 0015620 318.7511  41.2430 14.16157863931076
INTERCOSMOS 24          
1 20261U 89080A   26098.19295412  .00000283  00000+0  81473-4 0  9993
2 20261  82.6016  85.1861 1187091 224.2877 125.7086 12.59593230670511
SL-14 R/B               
1 20262U 89080C   26098.16202642  .00000303  00000+0  81704-4 0  9994
2 20262  82.5939 154.2743 1230944 117.4184 255.7487 12.50521283663838
DELTA 1 R/B             
1 20323U 89089B   26098.28009212  .00000304  00000+0  83825-4 0  9999
2 20323  97.0681 301.0069 0069851  30.1590 330.3601 14.50688925900024
ARIANE 40 R/B           
1 20443U 90005H   26098.13857685  .00000270  00000+0  99147-4 0  9997
2 20443  98.3024 157.9136 0011347 114.4662 245.7711 14.39891450897042
DELTA 2 R/B(1)          
1 20453U 90008B   26097.98019237  .00063173  00000+0  64695-3 0  9996
2 20453  35.6037 342.0561 0076124 174.7134 185.4421 15.60158079930704
COSMOS 2058             
1 20465U 90010A   26098.17468581  .00003837  00000+0  22408-3 0  9991
2 20465  82.4726  18.3780 0008477 225.0882 134.9661 15.11621814946692
SL-14 R/B               
1 20466U 90010B   26098.09337659  .00000552  00000+0  63899-4 0  9995
2 20466  82.5013 239.7628 0019321 198.9986 161.0511 14.83600184932848
SL-14 R/B               
1 20511U 90018B   26098.27439991  .00000424  00000+0  50251-4 0  9992
2 20511  82.5245 195.4452 0016086 359.9367   0.1842 14.82175768926966
HST                     
1 20580U 90037B   26098.30063280  .00007478  00000+0  24254-3 0  9996
2 20580  28.4725 197.9316 0002358  95.2817 264.8048 15.29983890777851
SL-16 R/B               
1 20625U 90046B   26097.82218242 -.00000093  00000+0 -23460-4 0  9999
2 20625  70.9993 236.7252 0016615 261.9008  98.0229 14.15019304852515
COSMOS 2084             
1 20663U 90055A   26098.07548585  .00002576  00000+0  19023-3 0  9990
2 20663  62.7903 235.3366 0012301 200.3177 159.7436 15.05838543940742
SL-6 R/B(2)             
1 20666U 90055D   26098.23155873  .00001297  00000+0  10795-3 0  9991
2 20666  62.7821 153.3784 0029660 353.4971   6.5739 15.03742091942630
SL-8 R/B                
1 20775U 90078B   26098.06602196  .00010646  00000+0  31495-3 0  9991
2 20775  82.9046 224.8706 0357051 274.8133  81.2411 14.89927608813676
