[{"OBJECT_NAME":"SL-8 R/B","OBJECT_ID":"1988-053B","EPOCH":"2026-04-08T05:05:25.425312","MEAN_MOTION":14.38935845,"ECCENTRICITY":0.0021249,"INCLINATION":74.0475,"RA_OF_ASC_NODE":58.0428,"ARG_OF_PERICENTER":233.236,"MEAN_ANOMALY":228.0597,"EPHEMERIS_TYPE":0,"CLASSIFICATION_TYPE":"U","NORAD_CAT_ID":19257,"ELEMENT_SET_NO":999,"REV_AT_EPOCH":98084,"BSTAR":8.1206689e-5,"MEAN_MOTION_DOT":2.24e-6,"MEAN_MOTION_DDOT":0},{"OBJECT_NAME":"COSMOS 1975","OBJECT_ID":"1988-093A","EPOCH":"2026-04-08T06:06:01.470816","MEAN_MOTION":15.28496988,"ECCENTRICITY":0.00132349,"INCLINATION":82.5168,"RA_OF_ASC_NODE":87.9896,"ARG_OF_PERICENTER":71.0109,"MEAN_ANOMALY":289.2563,"EPHEMERIS_TYPE":0,"CLASSIFICATION_TYPE":"U","NORAD_CAT_ID":19573,"ELEMENT_SET_NO":999,"REV_AT_EPOCH":2392,"BSTAR":0.00019872758,"MEAN_MOTION_DOT":5.557e-5,"MEAN_MOTION_DDOT":0},{"OBJECT_NAME":"SL-14 R/B","OBJECT_ID":"1988-093B","EPOCH":"2026-04-08T05:55:26.914656","MEAN_MOTION":14.85693159,"ECCENTRICITY":0.00193565,"INCLINATION":82.5345,"RA_OF_ASC_NODE":14.3041,"ARG_OF_PERICENTER":302.9219,"MEAN_ANOMALY":211.3505,"EPHEMERIS_TYPE":0,"CLASSIFICATION_TYPE":"U","NORAD_CAT_ID":19574,"ELEMENT_SET_NO":999,"REV_AT_EPOCH":540,"BSTAR":5.206616e-5,"MEAN_MOTION_DOT":4.77e-6,"MEAN_MOTION_DDOT":0},{"OBJECT_NAME":"SL-16 R/B","OBJECT_ID":"1988-102B","EPOCH":"2026-04-08T05:14:26.648736","MEAN_MOTION":14.16157863,"ECCENTRICITY":0.00156206,"INCLINATION":70.9976,"RA_OF_ASC_NODE":89.363,"ARG_OF_PERICENTER":318.7511,"MEAN_ANOMALY":41.243,"EPHEMERIS_TYPE":0,"CLASSIFICATION_TYPE":"U","NORAD_CAT_ID":19650,"ELEMENT_SET_NO":999,"REV_AT_EPOCH":93107,"BSTAR":0.00016476174,"MEAN_MOTION_DOT":2.78e-6,"MEAN_MOTION_DDOT":0},{"OBJECT_NAME":"INTERCOSMOS 24","OBJECT_ID":"1989-080A","EPOCH":"2026-04-08T04:37:51.235968","MEAN_MOTION":12.5959323,"ECCENTRICITY":0.11870913,"INCLINATION":82.6016,"RA_OF_ASC_NODE":85.1861,"ARG_OF_PERICENTER":224.2877,"MEAN_ANOMALY":125.7086,"EPHEMERIS_TYPE":0,"CLASSIFICATION_TYPE":"U","NORAD_CAT_ID":20261,"ELEMENT_SET_NO":999,"REV_AT_EPOCH":67051,"BSTAR":8.1473112e-5,"MEAN_MOTION_DOT":2.83e-6,"MEAN_MOTION_DDOT":0},{"OBJECT_NAME":"SL-14 R/B","OBJECT_ID":"1989-080C","EPOCH":"2026-04-08T03:53:19.082688","MEAN_MOTION":12.50521283,"ECCENTRICITY":0.12309449,"INCLINATION":82.5939,"RA_OF_ASC_NODE":154.2743,"ARG_OF_PERICENTER":117.4184,"MEAN_ANOMALY":255.7487,"EPHEMERIS_TYPE":0,"CLASSIFICATION_TYPE":"U","NORAD_CAT_ID":20262,"ELEMENT_SET_NO":999,"REV_AT_EPOCH":66383,"BSTAR":8.1704358e-5,"MEAN_MOTION_DOT":3.03e-6,"MEAN_MOTION_DDOT":0},{"OBJECT_NAME":"DELTA 1 R/B","OBJECT_ID":"1989-089B","EPOCH":"2026-04-08T06:43:19.959168","MEAN_MOTION":14.50688925,"ECCENTRICITY":0.00698511,"INCLINATION":97.0681,"RA_OF_ASC_NODE":301.0069,"ARG_OF_PERICENTER":30.159,"MEAN_ANOMALY":330.3601,"EPHEMERIS_TYPE":0,"CLASSIFICATION_TYPE":"U","NORAD_CAT_ID":20323,"ELEMENT_SET_NO":999,"REV_AT_EPOCH":90002,"BSTAR":8.3825147e-5,"MEAN_MOTION_DOT":3.04e-6,"MEAN_MOTION_DDOT":0},{"OBJECT_NAME":"ARIANE 40 R/B","OBJECT_ID":"1990-005H","EPOCH":"2026-04-08T03:19:33.039840","MEAN_MOTION":14.3989145,"ECCENTRICITY":0.00113475,"INCLINATION":98.3024,"RA_OF_ASC_NODE":157.9136,"ARG_OF_PERICENTER":114.4662,"MEAN_ANOMALY":245.7711,"EPHEMERIS_TYPE":0,"CLASSIFICATION_TYPE":"U","NORAD_CAT_ID":20443,"ELEMENT_SET_NO":999,"REV_AT_EPOCH":89704,"BSTAR":9.9146774e-5,"MEAN_MOTION_DOT":2.7e-6,"MEAN_MOTION_DDOT":0},{"OBJECT_NAME":"DELTA 2 R/B(1)","OBJECT_ID":"1990-008B","EPOCH":"2026-04-07T23:31:28.620768","MEAN_MOTION":15.60158079,"ECCENTRICITY":0.0076124,"INCLINATION":35.6037,"RA_OF_ASC_NODE":342.0561,"ARG_OF_PERICENTER":174.7134,"MEAN_ANOMALY":185.4421,"EPHEMERIS_TYPE":0,"CLASSIFICATION_TYPE":"U","NORAD_CAT_ID":20453,"ELEMENT_SET_NO":999,"REV_AT_EPOCH":93070,"BSTAR":0.00064695,"MEAN_MOTION_DOT":0.00063173,"MEAN_MOTION_DDOT":0},{"OBJECT_NAME":"COSMOS 2058","OBJECT_ID":"1990-010A","EPOCH":"2026-04-08T04:11:32.853984","MEAN_MOTION":15.11621814,"ECCENTRICITY":0.00084778,"INCLINATION":82.4726,"RA_OF_ASC_NODE":18.378,"ARG_OF_PERICENTER":225.0882,"MEAN_ANOMALY":134.9661,"EPHEMERIS_TYPE":0,"CLASSIFICATION_TYPE":"U","NORAD_CAT_ID":20465,"ELEMENT_SET_NO":999,"REV_AT_EPOCH":94669,"BSTAR":0.00022407781,"MEAN_MOTION_DOT":3.837e-5,"MEAN_MOTION_DDOT":0},{"OBJECT_NAME":"SL-14 R/B","OBJECT_ID":"1990-010B","EPOCH":"2026-04-08T02:14:27.737376","MEAN_MOTION":14.83600184,"ECCENTRICITY":0.00193215,"INCLINATION":82.5013,"RA_OF_ASC_NODE":239.7628,"ARG_OF_PERICENTER":198.9986,"MEAN_ANOMALY":161.0511,"EPHEMERIS_TYPE":0,"CLASSIFICATION_TYPE":"U","NORAD_CAT_ID":20466,"ELEMENT_SET_NO":999,"REV_AT_EPOCH":93284,"BSTAR":6.3899489e-5,"MEAN_MOTION_DOT":5.52e-6,"MEAN_MOTION_DDOT":0},{"OBJECT_NAME":"SL-14 R/B","OBJECT_ID":"1990-018B","EPOCH":"2026-04-08T06:35:08.152224","MEAN_MOTION":14.82175768,"ECCENTRICITY":0.00160867,"INCLINATION":82.5245,"RA_OF_ASC_NODE":195.4452,"ARG_OF_PERICENTER":359.9367,"MEAN_ANOMALY":0.1842,"EPHEMERIS_TYPE":0,"CLASSIFICATION_TYPE":"U","NORAD_CAT_ID":20511,"ELEMENT_SET_NO":999,"REV_AT_EPOCH":92696,"BSTAR":5.0251031e-5,"MEAN_MOTION_DOT":4.24e-6,"MEAN_MOTION_DDOT":0},{"OBJECT_NAME":"HST","OBJECT_ID":"1990-037B","EPOCH":"2026-04-08T07:12:54.673920","MEAN_MOTION":15.2998389,"ECCENTRICITY":0.00023584,"INCLINATION":28.4725,"RA_OF_ASC_NODE":197.9316,"ARG_OF_PERICENTER":95.2817,"MEAN_ANOMALY":264.8048,"EPHEMERIS_TYPE":0,"CLASSIFICATION_TYPE":"U","NORAD_CAT_ID":20580,"ELEMENT_SET_NO":999,"REV_AT_EPOCH":77785,"BSTAR":0.00024253656,"MEAN_MOTION_DOT":7.478e-5,"MEAN_MOTION_DDOT":0},{"OBJECT_NAME":"SL-16 R/B","OBJECT_ID":"1990-046B","EPOCH":"2026-04-07T19:43:56.561088","MEAN_MOTION":14.15019304,"ECCENTRICITY":0.00166157,"INCLINATION":70.9993,"RA_OF_ASC_NODE":236.7252,"ARG_OF_PERICENTER":261.9008,"MEAN_ANOMALY":98.0229,"EPHEMERIS_TYPE":0,"CLASSIFICATION_TYPE":"U","NORAD_CAT_ID":20625,"ELEMENT_SET_NO":999,"REV_AT_EPOCH":85251,"BSTAR":-2.3459521e-5,"MEAN_MOTION_DOT":-9.3e-7,"MEAN_MOTION_DDOT":0},{"OBJECT_NAME":"COSMOS 2084","OBJECT_ID":"1990-055A","EPOCH":"2026-04-08T01:48:41.977440","MEAN_MOTION":15.05838543,"ECCENTRICITY":0.00123013,"INCLINATION":62.7903,"RA_OF_ASC_NODE":235.3366,"ARG_OF_PERICENTER":200.3177,"MEAN_ANOMALY":159.7436,"EPHEMERIS_TYPE":0,"CLASSIFICATION_TYPE":"U","NORAD_CAT_ID":20663,"ELEMENT_SET_NO":999,"REV_AT_EPOCH":94074,"BSTAR":0.00019023128,"MEAN_MOTION_DOT":2.576e-5,"MEAN_MOTION_DDOT":0},{"OBJECT_NAME":"SL-6 R/B(2)","OBJECT_ID":"1990-055D","EPOCH":"2026-04-08T05:33:26.674272","MEAN_MOTION":15.03742091,"ECCENTRICITY":0.00296602,"INCLINATION":62.7821,"RA_OF_ASC_NODE":153.3784,"ARG_OF_PERICENTER":353.4971,"MEAN_ANOMALY":6.5739,"EPHEMERIS_TYPE":0,"CLASSIFICATION_TYPE":"U","NORAD_CAT_ID":20666,"ELEMENT_SET_NO":999,"REV_AT_EPOCH":94263,"BSTAR":0.00010794937,"MEAN_MOTION_DOT":1.297e-5,"MEAN_MOTION_DDOT":0},{"OBJECT_NAME":"SL-8 R/B","OBJECT_ID":"1990-078B","EPOCH":"2026-04-08T01:35:04.297344","MEAN_MOTION":14.89927608,"ECCENTRICITY":0.03570511,"INCLINATION":82.9046,"RA_OF_ASC_NODE":224.8706,"ARG_OF_PERICENTER":274.8133,"MEAN_ANOMALY":81.2411,"EPHEMERIS_TYPE":0,"CLASSIFICATION_TYPE":"U","NORAD_CAT_ID":20775,"ELEMENT_SET_NO":999,"REV_AT_EPOCH":81367,"BSTAR":0.00031495182,"MEAN_MOTION_DOT":0.00010646,"MEAN_MOTION_DDOT":0}]
